CCSDS_OMM_VERS = 2.0
CREATION_DATE  = 
ORIGINATOR     = 

OBJECT_NAME    = STARLINK-36568
OBJECT_ID      = 2026-040C
CENTER_NAME    = EARTH
REF_FRAME      = TEME
TIME_SYSTEM    = UTC
MEAN_ELEMENT_THEORY = SGP/SGP4

EPOCH          = 2026-03-12T22:00:01.999584
MEAN_MOTION    = 15.98440740
ECCENTRICITY   = .0000938
INCLINATION    = 97.2735
RA_OF_ASC_NODE = 20.3832
ARG_OF_PERICENTER = 94.2085
MEAN_ANOMALY   = 270.7316

EPHEMERIS_TYPE = 0
CLASSIFICATION_TYPE = U
NORAD_CAT_ID   = 68017
ELEMENT_SET_NO = 999
REV_AT_EPOCH   = 294
BSTAR          = -.30405E-2
MEAN_MOTION_DOT = -.1402914E-1
MEAN_MOTION_DDOT = .60281E-3

CCSDS_OMM_VERS = 2.0
CREATION_DATE  = 
ORIGINATOR     = 

OBJECT_NAME    = STARLINK-36930
OBJECT_ID      = 2026-040D
CENTER_NAME    = EARTH
REF_FRAME      = TEME
TIME_SYSTEM    = UTC
MEAN_ELEMENT_THEORY = SGP/SGP4

EPOCH          = 2026-03-12T22:00:01.999584
MEAN_MOTION    = 15.98289454
ECCENTRICITY   = .0000978
INCLINATION    = 97.2733
RA_OF_ASC_NODE = 20.3803
ARG_OF_PERICENTER = 93.8239
MEAN_ANOMALY   = 263.9394

EPHEMERIS_TYPE = 0
CLASSIFICATION_TYPE = U
NORAD_CAT_ID   = 68018
ELEMENT_SET_NO = 999
REV_AT_EPOCH   = 294
BSTAR          = -.30555E-2
MEAN_MOTION_DOT = -.139812E-1
MEAN_MOTION_DDOT = .59802E-3

CCSDS_OMM_VERS = 2.0
CREATION_DATE  = 
ORIGINATOR     = 

OBJECT_NAME    = STARLINK-36928
OBJECT_ID      = 2026-040F
CENTER_NAME    = EARTH
REF_FRAME      = TEME
TIME_SYSTEM    = UTC
MEAN_ELEMENT_THEORY = SGP/SGP4

EPOCH          = 2026-03-12T22:00:01.999584
MEAN_MOTION    = 15.98526320
ECCENTRICITY   = .0000987
INCLINATION    = 97.2735
RA_OF_ASC_NODE = 20.3839
ARG_OF_PERICENTER = 93.3972
MEAN_ANOMALY   = 274.3382

EPHEMERIS_TYPE = 0
CLASSIFICATION_TYPE = U
NORAD_CAT_ID   = 68020
ELEMENT_SET_NO = 999
REV_AT_EPOCH   = 294
BSTAR          = -.3041E-2
MEAN_MOTION_DOT = -.1409751E-1
MEAN_MOTION_DDOT = .60884E-3

CCSDS_OMM_VERS = 2.0
CREATION_DATE  = 
ORIGINATOR     = 

OBJECT_NAME    = STARLINK-36858
OBJECT_ID      = 2026-040G
CENTER_NAME    = EARTH
REF_FRAME      = TEME
TIME_SYSTEM    = UTC
MEAN_ELEMENT_THEORY = SGP/SGP4

EPOCH          = 2026-03-12T15:45:52.912224
MEAN_MOTION    = 16.09437309
ECCENTRICITY   = .0001966
INCLINATION    = 97.2744
RA_OF_ASC_NODE = 20.1217
ARG_OF_PERICENTER = 191.7858
MEAN_ANOMALY   = 168.3380

EPHEMERIS_TYPE = 0
CLASSIFICATION_TYPE = U
NORAD_CAT_ID   = 68021
ELEMENT_SET_NO = 999
REV_AT_EPOCH   = 181
BSTAR          = .21815E-2
MEAN_MOTION_DOT = .1861165E-1
MEAN_MOTION_DDOT = .28173E-2

CCSDS_OMM_VERS = 2.0
CREATION_DATE  = 
ORIGINATOR     = 

OBJECT_NAME    = STARLINK-36871
OBJECT_ID      = 2026-040J
CENTER_NAME    = EARTH
REF_FRAME      = TEME
TIME_SYSTEM    = UTC
MEAN_ELEMENT_THEORY = SGP/SGP4

EPOCH          = 2026-03-12T20:24:25.277184
MEAN_MOTION    = 15.99233502
ECCENTRICITY   = .000141
INCLINATION    = 97.2750
RA_OF_ASC_NODE = 20.3178
ARG_OF_PERICENTER = 309.0673
MEAN_ANOMALY   = 51.0480

EPHEMERIS_TYPE = 0
CLASSIFICATION_TYPE = U
NORAD_CAT_ID   = 68023
ELEMENT_SET_NO = 999
REV_AT_EPOCH   = 184
BSTAR          = -.83781E-3
MEAN_MOTION_DOT = -.407204E-2
MEAN_MOTION_DDOT = .60857E-4

CCSDS_OMM_VERS = 2.0
CREATION_DATE  = 
ORIGINATOR     = 

OBJECT_NAME    = STARLINK-36891
OBJECT_ID      = 2026-040K
CENTER_NAME    = EARTH
REF_FRAME      = TEME
TIME_SYSTEM    = UTC
MEAN_ELEMENT_THEORY = SGP/SGP4

EPOCH          = 2026-03-12T20:23:21.108768
MEAN_MOTION    = 15.99385415
ECCENTRICITY   = .000074
INCLINATION    = 97.2745
RA_OF_ASC_NODE = 20.3187
ARG_OF_PERICENTER = 337.7241
MEAN_ANOMALY   = 22.4005

EPHEMERIS_TYPE = 0
CLASSIFICATION_TYPE = U
NORAD_CAT_ID   = 68024
ELEMENT_SET_NO = 999
REV_AT_EPOCH   = 184
BSTAR          = -.97118E-3
MEAN_MOTION_DOT = -.475767E-2
MEAN_MOTION_DDOT = .81484E-4

CCSDS_OMM_VERS = 2.0
CREATION_DATE  = 
ORIGINATOR     = 

OBJECT_NAME    = STARLINK-36378
OBJECT_ID      = 2026-040L
CENTER_NAME    = EARTH
REF_FRAME      = TEME
TIME_SYSTEM    = UTC
MEAN_ELEMENT_THEORY = SGP/SGP4

EPOCH          = 2026-03-12T18:51:19.063584
MEAN_MOTION    = 15.99869580
ECCENTRICITY   = .0001868
INCLINATION    = 97.2776
RA_OF_ASC_NODE = 20.2532
ARG_OF_PERICENTER = 159.3078
MEAN_ANOMALY   = 200.8276

EPHEMERIS_TYPE = 0
CLASSIFICATION_TYPE = U
NORAD_CAT_ID   = 68025
ELEMENT_SET_NO = 999
REV_AT_EPOCH   = 183
BSTAR          = -.30024E-3
MEAN_MOTION_DOT = -.151821E-2
MEAN_MOTION_DDOT = .1081E-4

CCSDS_OMM_VERS = 2.0
CREATION_DATE  = 
ORIGINATOR     = 

OBJECT_NAME    = STARLINK-36884
OBJECT_ID      = 2026-040M
CENTER_NAME    = EARTH
REF_FRAME      = TEME
TIME_SYSTEM    = UTC
MEAN_ELEMENT_THEORY = SGP/SGP4

EPOCH          = 2026-03-12T18:52:15.409344
MEAN_MOTION    = 15.99777063
ECCENTRICITY   = .0001398
INCLINATION    = 97.2760
RA_OF_ASC_NODE = 20.2520
ARG_OF_PERICENTER = 147.3459
MEAN_ANOMALY   = 212.7906

EPHEMERIS_TYPE = 0
CLASSIFICATION_TYPE = U
NORAD_CAT_ID   = 68026
ELEMENT_SET_NO = 999
REV_AT_EPOCH   = 183
BSTAR          = -.41837E-3
MEAN_MOTION_DOT = -.21013E-2
MEAN_MOTION_DDOT = .18487E-4

CCSDS_OMM_VERS = 2.0
CREATION_DATE  = 
ORIGINATOR     = 

OBJECT_NAME    = STARLINK-36940
OBJECT_ID      = 2026-040N
CENTER_NAME    = EARTH
REF_FRAME      = TEME
TIME_SYSTEM    = UTC
MEAN_ELEMENT_THEORY = SGP/SGP4

EPOCH          = 2026-03-12T20:04:41.411424
MEAN_MOTION    = 16.00830715
ECCENTRICITY   = .0000381
INCLINATION    = 97.2786
RA_OF_ASC_NODE = 20.3360
ARG_OF_PERICENTER = 196.1544
MEAN_ANOMALY   = 163.9723

EPHEMERIS_TYPE = 0
CLASSIFICATION_TYPE = U
NORAD_CAT_ID   = 68027
ELEMENT_SET_NO = 999
REV_AT_EPOCH   = 184
BSTAR          = -.3938E-3
MEAN_MOTION_DOT = -.209981E-2
MEAN_MOTION_DDOT = .18689E-4

CCSDS_OMM_VERS = 2.0
CREATION_DATE  = 
ORIGINATOR     = 

OBJECT_NAME    = STARLINK-36253
OBJECT_ID      = 2026-040P
CENTER_NAME    = EARTH
REF_FRAME      = TEME
TIME_SYSTEM    = UTC
MEAN_ELEMENT_THEORY = SGP/SGP4

EPOCH          = 2026-03-12T22:00:01.999584
MEAN_MOTION    = 15.80864894
ECCENTRICITY   = .0000694
INCLINATION    = 97.2813
RA_OF_ASC_NODE = 20.2618
ARG_OF_PERICENTER = 74.0727
MEAN_ANOMALY   = 18.6618

EPHEMERIS_TYPE = 0
CLASSIFICATION_TYPE = U
NORAD_CAT_ID   = 68028
ELEMENT_SET_NO = 999
REV_AT_EPOCH   = 304
BSTAR          = -.30918E-3
MEAN_MOTION_DOT = -.59093E-3
MEAN_MOTION_DDOT = 0

