STARLINK-36568          
1 68017U 26040C   26071.91668981 -.01402914  60281-3 -30405-2 0  9995
2 68017  97.2735  20.3832 0000938  94.2085 270.7316 15.98440740  2946
STARLINK-36930          
1 68018U 26040D   26071.91668981 -.01398120  59802-3 -30555-2 0  9992
2 68018  97.2733  20.3803 0000977  93.8239 263.9394 15.98289454  2945
STARLINK-36928          
1 68020U 26040F   26071.91668981 -.01409751  60884-3 -30410-2 0  9990
2 68020  97.2735  20.3839 0000987  93.3972 274.3382 15.98526320  2948
STARLINK-36858          
1 68021U 26040G   26071.65686241  .01861165  28173-2  21815-2 0  9993
2 68021  97.2744  20.1217 0001966 191.7858 168.3380 16.09437309  1817
STARLINK-36871          
1 68023U 26040J   26071.85029257 -.00407204  60857-4 -83781-3 0  9994
2 68023  97.2750  20.3178 0001409 309.0673  51.0480 15.99233502  1844
STARLINK-36891          
1 68024U 26040K   26071.84954988 -.00475767  81484-4 -97118-3 0  9999
2 68024  97.2745  20.3187 0000740 337.7241  22.4005 15.99385415  1841
STARLINK-36378          
1 68025U 26040L   26071.78563732 -.00151821  10810-4 -30024-3 0  9996
2 68025  97.2776  20.2532 0001867 159.3078 200.8276 15.99869580  1837
STARLINK-36884          
1 68026U 26040M   26071.78628947 -.00210130  18487-4 -41837-3 0  9998
2 68026  97.2760  20.2520 0001397 147.3459 212.7906 15.99777063  1832
STARLINK-36940          
1 68027U 26040N   26071.83659041 -.00209981  18689-4 -39380-3 0  9990
2 68027  97.2786  20.3360 0000381 196.1544 163.9723 16.00830715  1845
STARLINK-36253          
1 68028U 26040P   26071.91668981 -.00059093  00000+0 -30918-3 0  9991
2 68028  97.2813  20.2618 0000693  74.0727  18.6618 15.80864894  3040
